STARLINK-1643
1 26136C 20057V   21325.17519813  .00000533  00000-0  35696-4 0  3259
2 26136  53.0505 152.4511 0002042  80.3624 311.5108 15.06382504    14
